1 28485U 04047A   18272.75486295 +.00000815 +00000-0 +25610-4 0  9990
2 28485 020.5567 090.7058 0011337 052.3427 307.8034 15.04199914758975
